NORAD_CAT_ID,OBJECT_NAME,OBJECT_TYPE,EPOCH,MEAN_MOTION,ECCENTRICITY,INCLINATION,RA_OF_ASC_NODE,ARG_OF_PERICENTER,MEAN_ANOMALY,BSTAR,MEAN_MOTION_DOT,MEAN_MOTION_DDOT,TLE_LINE0,TLE_LINE1,TLE_LINE2,SEMIMAJOR_AXIS,PERIOD,APOGEE,PERIGEE,DECAYED
51715.0,STARLINK-3533,PAYLOAD,2022-08-22 06:00:00,15.08812431,0.0001495,53.2166,24.5867,59.6926,144.1853,0.0024018,0.00038115,0.0,0 STARLINK-3533,1 51715U 22016B   22234.25001157  .00038115  00000-0  24018-2 0  9999,2 51715  53.2166  24.5867 0001495  59.6926 144.1853 15.08812431 28988,6917.965,95.439,540.864,538.795,0.0
51715.0,STARLINK-3533,PAYLOAD,2022-08-22 12:00:00,15.08847455,0.0001575,53.2168,23.4647,61.8609,60.6915,-0.00080943,-0.0001315,0.0,0 STARLINK-3533,1 51715U 22016B   22234.50001157 -.00013150  00000-0 -80943-3 0  9991,2 51715  53.2168  23.4647 0001575  61.8609  60.6915 15.08847455  1308,6917.858,95.437,540.812,538.633,0.0
51715.0,STARLINK-3533,PAYLOAD,2022-08-22 22:00:00,15.08831382,0.0001683,53.2166,21.5956,52.8759,174.1749,0.0018788,0.00029733,0.0,0 STARLINK-3533,1 51715U 22016B   22234.91667824  .00029733  00000-0  18788-2 0  9994,2 51715  53.2166  21.5956 0001683  52.8759 174.1749 15.08831382 29087,6917.906999999997,95.438,540.936,538.607,0.0
51715.0,STARLINK-3533,PAYLOAD,2022-08-23 00:00:00,15.08857268,0.0001648,53.2166,21.221,53.4109,266.5317,-0.0013177999999999,-0.0002121,0.0,0 STARLINK-3533,1 51715U 22016B   22235.00001157 -.00021210  00000-0 -13178-2 0  9998,2 51715  53.2166  21.2210 0001648  53.4109 266.5317 15.08857268  1307,6917.828,95.436,540.8330000000002,538.553,0.0
51715.0,STARLINK-3533,PAYLOAD,2022-08-23 14:00:01,15.08872753,0.0001614,53.2171,18.602,57.2475,192.9962,-0.004268,-0.00067637,0.0,0 STARLINK-3533,1 51715U 22016B   22235.58334491 -.00067637  00000-0 -42680-2 0  9994,2 51715  53.2171  18.6020 0001614  57.2475 192.9962 15.08872753  1307,6917.78,95.435,540.762,538.529,0.0
51715.0,STARLINK-3533,PAYLOAD,2022-08-23 22:00:01,15.08822893,0.0001631,53.2171,17.1061,50.231,211.6822,0.0010756,0.00016864,0.0,0 STARLINK-3533,1 51715U 22016B   22235.91668981  .00016864  00000-0  10756-2 0  9998,2 51715  53.2171  17.1061 0001631  50.2310 211.6822 15.08822893  1300,6917.933000000001,95.439,540.9259999999998,538.669,0.0
51715.0,STARLINK-3533,PAYLOAD,2022-08-24 08:00:01,15.08815387,0.0001511,53.2175,15.2337,59.18899999999999,307.1422,0.002574,0.00040887,0.0,0 STARLINK-3533,1 51715U 22016B   22236.33334491  .00040887  00000-0  25740-2 0  9992,2 51715  53.2175  15.2337 0001511  59.1890 307.1422 15.08815387 29304,6917.956,95.439,540.866,538.775,0.0
51715.0,STARLINK-3533,PAYLOAD,2022-08-24 14:00:01,15.08847195,0.0001607,53.2176,14.1128,55.0033,230.0116,-0.0014062999999999,-0.00022604,0.0,0 STARLINK-3533,1 51715U 22016B   22236.58334491 -.00022604  00000-0 -14063-2 0  9994,2 51715  53.2176  14.1128 0001607  55.0033 230.0116 15.08847195  1307,6917.858,95.437,540.835,538.612,0.0
51715.0,STARLINK-3533,PAYLOAD,2022-08-24 22:00:00,15.08841816,0.0001648,53.2175,12.6169,50.1772,246.4306,0.00036252,5.486e-05,0.0,0 STARLINK-3533,1 51715U 22016B   22236.91667824  .00005486  00000-0  36252-3 0  9992,2 51715  53.2175  12.6169 0001648  50.1772 246.4306 15.08841816  1301,6917.875,95.437,540.88,538.6,0.0
51715.0,STARLINK-3533,PAYLOAD,2022-08-25 14:00:01,15.08859741,0.0001612,53.2181,9.6237,54.6172,265.1885,-0.0013868,-0.00022303,0.0,0 STARLINK-3533,1 51715U 22016B   22237.58334491 -.00022303  00000-0 -13868-2 0  9993,2 51715  53.2181   9.6237 0001612  54.6172 265.1885 15.08859741  1300,6917.82,95.436,540.8,538.57,0.0
51715.0,STARLINK-3533,PAYLOAD,2022-08-25 22:00:00,15.08858369,0.0001644,53.2178,8.1276,50.5141,280.8975,-0.00031847,-5.356e-05,0.0,0 STARLINK-3533,1 51715U 22016B   22237.91667824 -.00005356  00000-0 -31847-3 0  9996,2 51715  53.2178   8.1276 0001644  50.5141 280.8975 15.08858369  1308,6917.824000000001,95.436,540.827,538.552,0.0
51715.0,STARLINK-3533,PAYLOAD,2022-08-26 06:00:00,15.08837277,0.000153,53.2181,6.6297,59.9073,283.1261,0.00030777,4.613e-05,0.0,0 STARLINK-3533,1 51715U 22016B   22238.25001157  .00004613  00000-0  30777-3 0  9999,2 51715  53.2181   6.6297 0001530  59.9073 283.1261 15.08837277 29588,6917.889,95.438,540.812,538.695,0.0
51715.0,STARLINK-3533,PAYLOAD,2022-08-26 14:00:01,15.0884347,0.0001692,53.2182,5.1348,56.9588,297.733,-0.0014098,-0.00022657,0.0,0 STARLINK-3533,1 51715U 22016B   22238.58335648 -.00022657  00000-0 -14098-2 0  9997,2 51715  53.2182   5.1348 0001692  56.9588 297.7330 15.08843470  1307,6917.87,95.437,540.905,538.564,0.0
51715.0,STARLINK-3533,PAYLOAD,2022-08-26 22:00:00,15.08845084,0.0001693,53.2178,3.6386,53.4593,312.7553,-0.00080862,-0.00013136,0.0,0 STARLINK-3533,1 51715U 22016B   22238.91667824 -.00013136  00000-0 -80862-3 0  9993,2 51715  53.2178   3.6386 0001693  53.4593 312.7553 15.08845084  1304,6917.865,95.437,540.901,538.559,0.0
51715.0,STARLINK-3533,PAYLOAD,2022-08-27 14:00:01,15.08855647,0.0001673,53.218,0.6462,57.15600000000001,332.254,-0.0012675,-0.00020412,0.0,0 STARLINK-3533,1 51715U 22016B   22239.58334491 -.00020412  00000-0 -12675-2 0  9999,2 51715  53.2180   0.6462 0001673  57.1560 332.2540 15.08855647  1301,6917.833000000001,95.437,540.855,538.54,0.0
51715.0,STARLINK-3533,PAYLOAD,2022-08-27 22:00:00,15.08870174,0.0001626999999999,53.2176,359.1497,53.2207,347.7895,-0.0038778,-0.00061527,0.0,0 STARLINK-3533,1 51715U 22016B   22239.91667824 -.00061527  00000-0 -38778-2 0  9999,2 51715  53.2176 359.1497 0001627  53.2207 347.7895 15.08870174  1306,6917.788000000001,95.436,540.779,538.528,0.0
51715.0,STARLINK-3533,PAYLOAD,2022-08-28 14:00:01,15.08844256,0.0001612,53.2176,356.1575,55.4225,8.7841,-0.00094894,-0.0001536,0.0,0 STARLINK-3533,1 51715U 22016B   22240.58334491 -.00015360  00000-0 -94894-3 0  9991,2 51715  53.2176 356.1575 0001612  55.4225   8.7841 15.08844256  1305,6917.8669999999975,95.437,540.8480000000002,538.617,0.0
51715.0,STARLINK-3533,PAYLOAD,2022-08-28 22:00:00,15.08864621,0.0001643,53.2173,354.6609,53.1343,22.6586,-0.0039936999999999,-0.00063332,0.0,0 STARLINK-3533,1 51715U 22016B   22240.91667824 -.00063332  00000-0 -39937-2 0  9995,2 51715  53.2173 354.6609 0001643  53.1343  22.6586 15.08864621  1302,6917.805,95.436,540.807,538.534,0.0
51715.0,STARLINK-3533,PAYLOAD,2022-08-29 14:00:01,15.08742893,0.0001546,53.2174,351.6519,50.522,48.441,0.00926,0.00149838,0.0,0 STARLINK-3533,1 51715U 22016B   22241.58334491  .00149838  00000-0  92600-2 0  9990,2 51715  53.2174 351.6519 0001546  50.5220  48.4410 15.08742893  1305,6918.177,95.444,541.112,538.9730000000002,0.0
51715.0,STARLINK-3533,PAYLOAD,2022-08-29 16:00:00,15.08836337,0.0001733999999999,53.2175,351.295,54.0029,137.8878,0.00071177,0.00011057,0.0,0 STARLINK-3533,1 51715U 22016B   22241.66667824  .00011057  00000-0  71177-3 0  9996,2 51715  53.2175 351.2950 0001734  54.0029 137.8878 15.08836337 30104,6917.892,95.438,540.956,538.557,0.0
51715.0,STARLINK-3533,PAYLOAD,2022-08-29 22:00:00,15.08865759,0.0001720999999999,53.2172,350.172,53.9069,56.6753,-0.0040351,-0.00063982,0.0,0 STARLINK-3533,1 51715U 22016B   22241.91667824 -.00063982  00000-0 -40351-2 0  9999,2 51715  53.2172 350.1720 0001721  53.9069  56.6753 15.08865759  1302,6917.802,95.436,540.857,538.476,0.0
51715.0,STARLINK-3533,PAYLOAD,2022-08-30 14:00:01,15.08823183,0.0001883,53.2173,347.1798,57.0177,76.7654,-0.00036778,-6.134e-05,0.0,0 STARLINK-3533,1 51715U 22016B   22242.58334491 -.00006134  00000-0 -36778-3 0  9999,2 51715  53.2173 347.1798 0001883  57.0177  76.7654 15.08823183  1306,6917.932,95.439,541.099,538.494,0.0
51715.0,STARLINK-3533,PAYLOAD,2022-08-30 16:00:00,15.08806952,0.0001915,53.2175,346.806,55.3088,171.3718,0.0020545999999999,0.00032533,0.0,0 STARLINK-3533,1 51715U 22016B   22242.66667824  .00032533  00000-0  20546-2 0  9992,2 51715  53.2175 346.8060 0001915  55.3088 171.3718 15.08806952 30258,6917.981,95.44,541.1709999999998,538.5219999999998,0.0
51715.0,STARLINK-3533,PAYLOAD,2022-08-30 22:00:00,15.08842881,0.0001847,53.2173,345.68300000000005,55.4687,89.8822,-0.0015072,-0.00024197,0.0,0 STARLINK-3533,1 51715U 22016B   22242.91667824 -.00024197  00000-0 -15072-2 0  9997,2 51715  53.2173 345.6830 0001847  55.4687  89.8822 15.08842881  1302,6917.871999999999,95.437,541.014,538.4590000000002,0.0
51715.0,STARLINK-3533,PAYLOAD,2022-08-31 14:00:01,15.08856987,0.0001869,53.2175,342.6907,54.333,114.2717,-1.5611e-05,-5.37e-06,0.0,0 STARLINK-3533,1 51715U 22016B   22243.58334491 -.00000537  00000-0 -15611-4 0  9995,2 51715  53.2175 342.6907 0001869  54.3330 114.2717 15.08856987  1301,6917.828,95.436,540.986,538.401,0.0
51715.0,STARLINK-3533,PAYLOAD,2022-08-31 22:00:00,15.08882264,0.0001809,53.2175,341.1936,53.9051,126.3137,-0.0017303,-0.00027752,0.0,0 STARLINK-3533,1 51715U 22016B   22243.91667824 -.00027752  00000-0 -17303-2 0  9997,2 51715  53.2175 341.1936 0001809  53.9051 126.3137 15.08882264  1303,6917.751,95.435,540.868,538.365,0.0
51715.0,STARLINK-3533,PAYLOAD,2022-09-01 14:00:01,15.08874894,0.0001894,53.2177,338.2014,53.701,149.8558,0.00051349,7.901e-05,0.0,0 STARLINK-3533,1 51715U 22016B   22244.58335648  .00007901  00000-0  51349-3 0  9998,2 51715  53.2177 338.2014 0001894  53.7010 149.8558 15.08874894  1303,6917.774,95.435,540.9490000000002,538.3290000000002,0.0
51715.0,STARLINK-3533,PAYLOAD,2022-09-01 22:00:00,15.0890307,0.0001806,53.2176,336.704,54.2649,160.8654,-0.0018522,-0.00029696,0.0,0 STARLINK-3533,1 51715U 22016B   22244.91667824 -.00029696  00000-0 -18522-2 0  9991,2 51715  53.2176 336.7040 0001806  54.2649 160.8654 15.08903070  1300,6917.688,95.434,540.802,538.303,0.0
51715.0,STARLINK-3533,PAYLOAD,2022-09-02 14:00:01,15.08888791,0.0001886999999999,53.2177,333.7119,53.5878,184.8604,0.00080916,0.0001262999999999,0.0,0 STARLINK-3533,1 51715U 22016B   22245.58334491  .00012630  00000-0  80916-3 0  9991,2 51715  53.2177 333.7119 0001887  53.5878 184.8604 15.08888791  1303,6917.731,95.434,540.9019999999998,538.2909999999998,0.0
